ONEWEB-0572             
1 55151U 23004M   26177.47980488  .00000034  00000+0  54308-4 0  9997
2 55151  87.9131   4.0165 0002025  93.5622 266.5741 13.17649035168702
ONEWEB-0573             
1 55152U 23004N   26177.44778068  .00000077  00000+0  16237-3 0  9999
2 55152  87.9169 333.6262 0002525 110.0651 250.0753 13.18686924170911
ONEWEB-0588             
1 55153U 23004P   26177.44104279  .00000064  00000+0  13061-3 0  9995
2 55153  87.9166 333.6276 0002373  92.5827 267.5577 13.18686074170917
ONEWEB-0598             
1 55154U 23004Q   26177.54476964  .00000476  00000+0  13074-2 0  9990
2 55154  87.8880  19.2053 0002046 108.0675 252.0676 13.11416467167129
ONEWEB-0599             
1 55155U 23004R   26177.44099470  .00000112  00000+0  25413-3 0  9991
2 55155  87.9132   4.0227 0001679  94.2886 265.8437 13.17649430168703
ONEWEB-0614             
1 55156U 23004S   26177.53967827  .00000359  00000+0  97683-3 0  9993
2 55156  87.8879  19.2151 0001982  81.6417 278.4936 13.11417594167062
ONEWEB-0616             
1 55157U 23004T   26177.48318407  .00000076  00000+0  16322-3 0  9999
2 55157  87.9132   4.0181 0000987 103.7538 256.3703 13.17649397168922
ONEWEB-0617             
1 55158U 23004U   26177.45151292 -.00000055  00000+0 -19134-3 0  9997
2 55158  87.8885  19.2237 0002174  83.4734 276.6641 13.11418899167075
ONEWEB-0618             
1 55159U 23004V   26177.44936894  .00004996  00000+0  27943-3 0  9999
2 55159  86.9094 173.8741 0009428 254.9889 105.0308 15.13210324183665
ONEWEB-0619             
1 55160U 23004W   26177.43931131  .00000090  00000+0  19897-3 0  9999
2 55160  87.9143   4.0084 0001743  77.0173 283.1153 13.17649520168812
ONEWEB-0620             
1 55161U 23004X   26177.29382254 -.00000257  00000+0 -76231-3 0  9992
2 55161  87.8882  19.2639 0002011  93.3937 266.7421 13.11417503167029
ONEWEB-0621             
1 55162U 23004Y   26177.54985397  .00000538  00000+0  14811-2 0  9993
2 55162  87.8890  19.2024 0001940  80.9176 279.2171 13.11415916167032
ONEWEB-0622             
1 55163U 23004Z   26177.55494301  .00000485  00000+0  13317-2 0  9996
2 55163  87.8891  19.2039 0002546  82.7014 277.4404 13.11415114167022
ONEWEB-0623             
1 55164U 23004AA  26177.43423470  .00000064  00000+0  13194-3 0  9990
2 55164  87.9130   4.0385 0002312  71.9448 288.1936 13.17649955168802
ONEWEB-0624             
1 55165U 23004AB  26177.49238749 -.00000169  00000+0 -50271-3 0  9995
2 55165  87.8949 348.7325 0001858  88.3335 271.8006 13.12928365169294
ONEWEB-0625             
1 55166U 23004AC  26177.50005943  .00000045  00000+0  83326-4 0  9995
2 55166  87.9133   4.0213 0001677  89.1587 270.9737 13.17649546168809
ONEWEB-0626             
1 55167U 23004AD  26177.48992055  .00000032  00000+0  48746-4 0  9995
2 55167  87.9131   4.0229 0002106 100.1882 259.9488 13.17657023168804
ONEWEB-0627             
1 55168U 23004AE  26177.47811002  .00001069  00000+0  27191-2 0  9997
2 55168  87.9135   4.0258 0002096  76.6375 283.4990 13.17656838168806
ONEWEB-0628             
1 55169U 23004AF  26177.47725048  .00000305  00000+0  81202-3 0  9998
2 55169  87.8951 348.8051 0002095  73.9297 286.2062 13.12441298169252
ONEWEB-0629             
1 55170U 23004AG  26177.45364949  .00000019  00000+0  15805-4 0  9996
2 55170  87.9132   4.0264 0001748  79.7419 280.3909 13.17648502168804
ONEWEB-0631             
1 55171U 23004AH  26177.43429816  .00000058  00000+0  11479-3 0  9995
2 55171  87.9175 333.5958 0002349  98.3536 261.7862 13.18685872170892
ONEWEB-0709             
1 55172U 23004AJ  26177.28365022 -.00000533  00000+0 -15406-2 0  9990
2 55172  87.8880  19.2681 0002179 111.1614 248.9747 13.11416590167064
ONEWEB-0710             
1 55173U 23004AK  26177.46798569  .00000031  00000+0  45756-4 0  9991
2 55173  87.9129   4.0190 0002015  86.9990 273.1372 13.17650228168805
ONEWEB-0711             
1 55174U 23004AL  26177.48373047  .00000347  00000+0  94237-3 0  9991
2 55174  87.8881  19.2156 0002425  75.6006 284.5392 13.11414352167052
ONEWEB-0713             
1 55175U 23004AM  26177.50237194 -.00000316  00000+0 -92824-3 0  9995
2 55175  87.8883  19.2136 0002147  80.6218 279.5153 13.11415838167043
ONEWEB-0715             
1 55176U 23004AN  26177.57357785 -.00000142  00000+0 -43656-3 0  9998
2 55176  87.8881  19.2000 0002312 101.2563 258.8825 13.11414363167092
ONEWEB-0716             
1 55177U 23004AP  26177.46123458  .00000012  00000+0 -14866-5 0  9993
2 55177  87.9131   4.0230 0001624  90.9488 269.1830 13.17650594168809
ONEWEB-0717             
1 55178U 23004AQ  26177.44437270  .00000084  00000+0  18422-3 0  9990
2 55178  87.9144   4.0149 0002399  84.3095 275.8311 13.17649298168856
ONEWEB-0719             
1 55179U 23004AR  26177.45449827  .00000066  00000+0  13675-3 0  9998
2 55179  87.9142   3.9931 0001713  86.2114 273.9214 13.17649975168802
ONEWEB-0530             
1 55796U 23029A   26177.55953310  .00000022  00000+0  21482-4 0  9996
2 55796  87.9185 272.6005 0002166  88.1008 272.0374 13.20772218162382
