OBJECT_NAME,OBJECT_ID,EPOCH,MEAN_MOTION,ECCENTRICITY,INCLINATION,RA_OF_ASC_NODE,ARG_OF_PERICENTER,MEAN_ANOMALY,EPHEMERIS_TYPE,CLASSIFICATION_TYPE,NORAD_CAT_ID,ELEMENT_SET_NO,REV_AT_EPOCH,BSTAR,MEAN_MOTION_DOT,MEAN_MOTION_DDOT
ONEWEB-0572,2023-004M,2026-06-26T11:30:55.141632,13.17649035,.00020259,87.9131,4.0165,93.5622,266.5741,0,U,55151,999,16870,.54308337E-4,.34E-6,0
ONEWEB-0573,2023-004N,2026-06-26T10:44:48.250752,13.18686924,.00025251,87.9169,333.6262,110.0651,250.0753,0,U,55152,999,17091,.16237133E-3,.77E-6,0
ONEWEB-0588,2023-004P,2026-06-26T10:35:06.097056,13.18686074,.00023735,87.9166,333.6276,92.5827,267.5577,0,U,55153,999,17091,.13061228E-3,.64E-6,0
ONEWEB-0598,2023-004Q,2026-06-26T13:04:28.096896,13.11416467,.00020463,87.8880,19.2053,108.0675,252.0676,0,U,55154,999,16712,.13074492E-2,.476E-5,0
ONEWEB-0599,2023-004R,2026-06-26T10:35:01.942080,13.17649430,.00016794,87.9132,4.0227,94.2886,265.8437,0,U,55155,999,16870,.25413165E-3,.112E-5,0
ONEWEB-0614,2023-004S,2026-06-26T12:57:08.202528,13.11417594,.00019827,87.8879,19.2151,81.6417,278.4936,0,U,55156,999,16706,.97682737E-3,.359E-5,0
ONEWEB-0616,2023-004T,2026-06-26T11:35:47.103648,13.17649397,.00009872,87.9132,4.0181,103.7538,256.3703,0,U,55157,999,16892,.163218E-3,.76E-6,0
ONEWEB-0617,2023-004U,2026-06-26T10:50:10.716288,13.11418899,.00021748,87.8885,19.2237,83.4734,276.6641,0,U,55158,999,16707,-.19133928E-3,-.55E-6,0
ONEWEB-0618,2023-004V,2026-06-26T10:47:05.476416,15.13210324,.00094286,86.9094,173.8741,254.9889,105.0308,0,U,55159,999,18366,.27942894E-3,.4996E-4,0
ONEWEB-0619,2023-004W,2026-06-26T10:32:36.497184,13.17649520,.00017432,87.9143,4.0084,77.0173,283.1153,0,U,55160,999,16881,.19896774E-3,.9E-6,0
ONEWEB-0620,2023-004X,2026-06-26T07:03:06.267456,13.11417503,.0002011,87.8882,19.2639,93.3937,266.7421,0,U,55161,999,16702,-.76230574E-3,-.257E-5,0
ONEWEB-0621,2023-004Y,2026-06-26T13:11:47.383008,13.11415916,.000194,87.8890,19.2024,80.9176,279.2171,0,U,55162,999,16703,.14810615E-2,.538E-5,0
ONEWEB-0622,2023-004Z,2026-06-26T13:19:07.076064,13.11415114,.00025464,87.8891,19.2039,82.7014,277.4404,0,U,55163,999,16702,.13316804E-2,.485E-5,0
ONEWEB-0623,2023-004AA,2026-06-26T10:25:17.878080,13.17649955,.00023126,87.9130,4.0385,71.9448,288.1936,0,U,55164,999,16880,.13193672E-3,.64E-6,0
ONEWEB-0624,2023-004AB,2026-06-26T11:49:02.279136,13.12928365,.00018582,87.8949,348.7325,88.3335,271.8006,0,U,55165,999,16929,-.50271302E-3,-.169E-5,0
ONEWEB-0625,2023-004AC,2026-06-26T12:00:05.134752,13.17649546,.00016777,87.9133,4.0213,89.1587,270.9737,0,U,55166,999,16880,.83326012E-4,.45E-6,0
ONEWEB-0626,2023-004AD,2026-06-26T11:45:29.135520,13.17657023,.00021063,87.9131,4.0229,100.1882,259.9488,0,U,55167,999,16880,.48746246E-4,.32E-6,0
ONEWEB-0627,2023-004AE,2026-06-26T11:28:28.705728,13.17656838,.00020962,87.9135,4.0258,76.6375,283.4990,0,U,55168,999,16880,.27191175E-2,.1069E-4,0
ONEWEB-0628,2023-004AF,2026-06-26T11:27:14.441472,13.12441298,.00020952,87.8951,348.8051,73.9297,286.2062,0,U,55169,999,16925,.81202396E-3,.305E-5,0
ONEWEB-0629,2023-004AG,2026-06-26T10:53:15.315936,13.17648502,.00017485,87.9132,4.0264,79.7419,280.3909,0,U,55170,999,16880,.15805205E-4,.19E-6,0
ONEWEB-0631,2023-004AH,2026-06-26T10:25:23.361024,13.18685872,.00023498,87.9175,333.5958,98.3536,261.7862,0,U,55171,999,17089,.11478574E-3,.58E-6,0
ONEWEB-0709,2023-004AJ,2026-06-26T06:48:27.379008,13.11416590,.00021798,87.8880,19.2681,111.1614,248.9747,0,U,55172,999,16706,-.15406062E-2,-.533E-5,0
ONEWEB-0710,2023-004AK,2026-06-26T11:13:53.963616,13.17650228,.00020159,87.9129,4.0190,86.9990,273.1372,0,U,55173,999,16880,.45756144E-4,.31E-6,0
ONEWEB-0711,2023-004AL,2026-06-26T11:36:34.312608,13.11414352,.00024256,87.8881,19.2156,75.6006,284.5392,0,U,55174,999,16705,.94236692E-3,.347E-5,0
ONEWEB-0713,2023-004AM,2026-06-26T12:03:24.935616,13.11415838,.00021474,87.8883,19.2136,80.6218,279.5153,0,U,55175,999,16704,-.9282439E-3,-.316E-5,0
ONEWEB-0715,2023-004AN,2026-06-26T13:45:57.126240,13.11414363,.00023123,87.8881,19.2000,101.2563,258.8825,0,U,55176,999,16709,-.43656443E-3,-.142E-5,0
ONEWEB-0716,2023-004AP,2026-06-26T11:04:10.667712,13.17650594,.00016242,87.9131,4.0230,90.9488,269.1830,0,U,55177,999,16880,-.1486646E-5,.12E-6,0
ONEWEB-0717,2023-004AQ,2026-06-26T10:39:53.801280,13.17649298,.00023997,87.9144,4.0149,84.3095,275.8311,0,U,55178,999,16885,.18421697E-3,.84E-6,0
ONEWEB-0719,2023-004AR,2026-06-26T10:54:28.650528,13.17649975,.00017132,87.9142,3.9931,86.2114,273.9214,0,U,55179,999,16880,.13674543E-3,.66E-6,0
ONEWEB-0530,2023-029A,2026-06-26T13:25:43.659840,13.20772218,.00021664,87.9185,272.6005,88.1008,272.0374,0,U,55796,999,16238,.21482172E-4,.22E-6,0
